KUIPER-00008            
1 63724U 25088A   25306.26439014  .00006698  00000+0  55770-3 0  9995
2 63724  51.8910 307.9401 0011722  37.0658 323.1120 14.99659449 28949
KUIPER-00009            
1 63725U 25088B   25307.70195870  .00002392  00000+0  34066-3 0  9997
2 63725  51.9017 303.6999 0013230  43.0692 317.1303 14.80178724 29124
KUIPER-00010            
1 63726U 25088C   25307.62922639  .00001200  00000+0  18594-3 0  9995
2 63726  51.9022 280.5166 0012153  87.6687 272.5667 14.80079320 29063
KUIPER-00011            
1 63727U 25088D   25307.65496350  .00002041  00000+0  29627-3 0  9998
2 63727  51.9016 287.9846 0014372  59.6596 300.5785 14.79990016 29094
KUIPER-00012            
1 63728U 25088E   25307.83336806 -.00739619  00000+0 -40926-1 0  9991
2 63728  51.8726 273.0012 0011860  64.2748 193.9989 15.15862981  3275
KUIPER-00013            
1 63729U 25088F   25306.28565262  .00004246  00000+0  58560-3 0  9994
2 63729  51.9021 311.4608 0008031 332.2005  27.8527 14.79929288 28704
KUIPER-00014            
1 63730U 25088G   25307.70207698 -.00009397  00000+0 -12038-2 0  9993
2 63730  51.9033 306.1646 0008481  38.6042 321.5526 14.79951396 28718
KUIPER-00015            
1 63731U 25088H   25306.44178809  .00003033  00000+0  41091-3 0  9996
2 63731  51.8998 323.2556 0010410  18.9211 341.2136 14.81548062 28825
